SATELIOT_3              
1 60552U 24149CN  26068.79802274  .00002865  00000+0  25003-3 0  9992
2 60552  97.6866 147.0596 0005831  63.3535 296.8284 14.97601684 85206
STARLINK-34675          
1 64809U 25150V   26068.59944683  .00006513  00000+0  55310-3 0  9991
2 64809  70.0017 134.6736 0003422 269.9117  90.1650 14.98331751 36507
