[{"OBJECT_NAME":"SATELIOT_3","OBJECT_ID":"2024-149CN","EPOCH":"2026-03-09T19:09:09.165600","MEAN_MOTION":14.97601684,"ECCENTRICITY":0.00058308,"INCLINATION":97.6866,"RA_OF_ASC_NODE":147.0596,"ARG_OF_PERICENTER":63.3535,"MEAN_ANOMALY":296.8284,"EPHEMERIS_TYPE":0,"CLASSIFICATION_TYPE":"U","NORAD_CAT_ID":60552,"ELEMENT_SET_NO":999,"REV_AT_EPOCH":8520,"BSTAR":0.00025002978,"MEAN_MOTION_DOT":2.865e-5,"MEAN_MOTION_DDOT":0},{"OBJECT_NAME":"STARLINK-34675","OBJECT_ID":"2025-150V","EPOCH":"2026-03-09T14:23:12.206112","MEAN_MOTION":14.98331751,"ECCENTRICITY":0.0003422,"INCLINATION":70.0017,"RA_OF_ASC_NODE":134.6736,"ARG_OF_PERICENTER":269.9117,"MEAN_ANOMALY":90.165,"EPHEMERIS_TYPE":0,"CLASSIFICATION_TYPE":"U","NORAD_CAT_ID":64809,"ELEMENT_SET_NO":999,"REV_AT_EPOCH":3650,"BSTAR":0.0005531,"MEAN_MOTION_DOT":6.513e-5,"MEAN_MOTION_DDOT":0}]
